[{"OBJECT_NAME":"LEMUR-2-DELOITTE-1","OBJECT_ID":"2025-052BB","EPOCH":"2026-03-09T22:32:58.708896","MEAN_MOTION":14.9679712,"ECCENTRICITY":0.00030112,"INCLINATION":97.7035,"RA_OF_ASC_NODE":323.209,"ARG_OF_PERICENTER":78.3841,"MEAN_ANOMALY":281.7719,"EPHEMERIS_TYPE":0,"CLASSIFICATION_TYPE":"U","NORAD_CAT_ID":63259,"ELEMENT_SET_NO":999,"REV_AT_EPOCH":5384,"BSTAR":0.00044206323,"MEAN_MOTION_DOT":5.004e-5,"MEAN_MOTION_DDOT":0},{"OBJECT_NAME":"STARLINK-36283","OBJECT_ID":"2025-304F","EPOCH":"2026-03-09T17:30:06.958080","MEAN_MOTION":14.98314255,"ECCENTRICITY":0.00028288,"INCLINATION":70.002,"RA_OF_ASC_NODE":174.2344,"ARG_OF_PERICENTER":272.5628,"MEAN_ANOMALY":87.5207,"EPHEMERIS_TYPE":0,"CLASSIFICATION_TYPE":"U","NORAD_CAT_ID":67197,"ELEMENT_SET_NO":999,"REV_AT_EPOCH":1389,"BSTAR":3.125774e-6,"MEAN_MOTION_DOT":-5.6e-7,"MEAN_MOTION_DDOT":0}]
